GLOBALSTAR M068         
1 32266U 07048D   25254.13058380 -.00000096  00000+0  41332-4 0  9996
2 32266  51.9898  40.2693 0000815  16.0417 153.8738 12.62828049828418
GLOBALSTAR M079         
1 37188U 10054A   25254.23925183 -.00000105  00000+0 -91589-5 0  9992
2 37188  52.0018 237.8309 0000538  93.3922 279.2489 12.62266589687325
GLOBALSTAR M074         
1 37189U 10054B   25254.26614878 -.00000105  00000+0 -83956-5 0  9991
2 37189  51.9995 237.0593 0000219  95.5874 278.2955 12.62271323687937
GLOBALSTAR M076         
1 37190U 10054C   25254.21355416 -.00000107  00000+0 -18795-4 0  9998
2 37190  52.0017 237.3983 0000414 115.9348 258.8155 12.62265160687648
GLOBALSTAR M077         
1 37191U 10054D   25254.11912442 -.00000093  00000+0  58819-4 0  9990
2 37191  52.0060 194.5508 0000470  63.9054 311.5166 12.62323165688002
GLOBALSTAR M075         
1 37192U 10054E   25254.07108802 -.00000091  00000+0  72950-4 0  9993
2 37192  51.9938 280.0426 0000333 105.0646 282.6566 12.62267633686690
GLOBALSTAR M073         
1 37193U 10054F   25254.25624476 -.00000089  00000+0  79812-4 0  9995
2 37193  52.0050 193.3604 0000552  80.8786  68.4337 12.62262452688704
GLOBALSTAR M083         
1 37739U 11033A   25254.19575046 -.00000079  00000+0  13725-3 0  9999
2 37739  51.9851 142.1590 0000834  72.4306 101.7126 12.62275545657712
GLOBALSTAR M088         
1 37740U 11033B   25254.16842045 -.00000117  00000+0 -72848-4 0  9990
2 37740  52.0224  47.9905 0000748  85.0798  84.6257 12.62267837653255
GLOBALSTAR M091         
1 37741U 11033C   25253.78225274 -.00000103  00000+0  51178-5 0  9995
2 37741  52.0024  12.5428 0000863  86.5816  68.8556 12.62270013653994
GLOBALSTAR M085         
1 37742U 11033D   25254.21396280 -.00000082  00000+0  11979-3 0  9990
2 37742  52.0147 322.2815 0000675  91.8726 285.7725 12.62264570654565
GLOBALSTAR M081         
1 37743U 11033E   25254.24437488 -.00000086  00000+0  97555-4 0  9999
2 37743  51.9979 324.9435 0000695 110.9065 284.0847 12.62267998654716
GLOBALSTAR M089         
1 37744U 11033F   25254.12643127 -.00000091  00000+0  69448-4 0  9992
2 37744  51.9921 279.5137 0000280 149.9149 249.7248 12.62266524655542
GLOBALSTAR M084         
1 38040U 11080A   25254.16590185 -.00000077  00000+0  14751-3 0  9993
2 38040  52.0001 146.7247 0000386  88.3324  70.3362 12.62268780633523
GLOBALSTAR M080         
1 38041U 11080B   25254.22082510 -.00000077  00000+0  14729-3 0  9994
2 38041  52.0054 148.1799 0000945  40.8351 136.7827 12.62268855633654
GLOBALSTAR M082         
1 38042U 11080C   25254.07611036 -.00000088  00000+0  87897-4 0  9998
2 38042  52.0067 104.0894 0001060  57.9965 112.5713 12.62268566634347
GLOBALSTAR M092         
1 38043U 11080D   25254.28623105 -.00000084  00000+0  11281-3 0  9991
2 38043  52.0074 193.8316 0000438  58.7215 106.3405 12.62265729632824
GLOBALSTAR M090         
1 38044U 11080E   25254.09833204 -.00000092  00000+0  66119-4 0  9994
2 38044  52.0114  97.8868 0000958  78.2708  73.1498 12.62262413634468
GLOBALSTAR M086         
1 38045U 11080F   25254.28671054 -.00000093  00000+0  59207-4 0  9990
2 38045  51.9887  97.6967 0001455 124.4413  47.5309 12.62276912634434
GLOBALSTAR M097         
1 39072U 13005A   25254.27606164 -.00000113  00000+0 -51458-4 0  9993
2 39072  52.0072  12.3665 0000852 100.7310 259.3653 12.62265683581681
GLOBALSTAR M093         
1 39073U 13005B   25254.01245726 -.00000097  00000+0  36947-4 0  9995
2 39073  52.0134   6.4097 0001065  98.6224 261.4763 12.62264179581607
GLOBALSTAR M094         
1 39074U 13005C   25254.24982771 -.00000098  00000+0  34571-4 0  9991
2 39074  51.9951 280.0842 0000605  98.7873 261.3063 12.62269775583242
GLOBALSTAR M096         
1 39075U 13005D   25254.18378650 -.00000079  00000+0  13821-3 0  9993
2 39075  52.0095 328.8663 0000756  98.3597 261.7355 12.62266631582157
GLOBALSTAR M078         
1 39076U 13005E   25254.15767315 -.00000116  00000+0 -70638-4 0  9994
2 39076  51.9879  53.3366 0001237  46.0797 314.0172 12.62260071580770
GLOBALSTAR M095         
1 39077U 13005F   25254.10447049 -.00000121  00000+0 -94538-4 0  9990
2 39077  52.0088  50.7055 0001224  74.7865 285.3137 12.62259852580621
GLOBALSTAR M087         
1 52888U 22064A   25254.19772458 -.00000084  00000+0  11123-3 0  9999
2 52888  51.9982 191.8271 0000715  58.2927 301.8009 12.62301248155902
